[{"OBJECT_NAME":"GEOSCAN 2 (RS92S2)","OBJECT_ID":"2025-155Q","EPOCH":"2026-03-09T23:01:48.939744","MEAN_MOTION":15.28709337,"ECCENTRICITY":0.00085277,"INCLINATION":97.4463,"RA_OF_ASC_NODE":37.5259,"ARG_OF_PERICENTER":140.9505,"MEAN_ANOMALY":219.2352,"EPHEMERIS_TYPE":0,"CLASSIFICATION_TYPE":"U","NORAD_CAT_ID":64890,"ELEMENT_SET_NO":999,"REV_AT_EPOCH":6561,"BSTAR":0.00051551761,"MEAN_MOTION_DOT":0.00014341,"MEAN_MOTION_DDOT":0},{"OBJECT_NAME":"STARLINK-35197","OBJECT_ID":"2025-243S","EPOCH":"2026-03-09T19:23:46.571424","MEAN_MOTION":15.30206354,"ECCENTRICITY":8.709e-5,"INCLINATION":53.1598,"RA_OF_ASC_NODE":244.5767,"ARG_OF_PERICENTER":96.5902,"MEAN_ANOMALY":263.5198,"EPHEMERIS_TYPE":0,"CLASSIFICATION_TYPE":"U","NORAD_CAT_ID":66193,"ELEMENT_SET_NO":999,"REV_AT_EPOCH":2067,"BSTAR":0.0008338738,"MEAN_MOTION_DOT":0.00024424,"MEAN_MOTION_DDOT":0}]
